[{"OBJECT_NAME":"OBJECT AS","OBJECT_ID":"2023-085AS","EPOCH":"2026-03-09T22:43:55.521696","MEAN_MOTION":15.33336233,"ECCENTRICITY":0.00083243,"INCLINATION":97.4812,"RA_OF_ASC_NODE":180.8852,"ARG_OF_PERICENTER":80.6036,"MEAN_ANOMALY":279.6147,"EPHEMERIS_TYPE":0,"CLASSIFICATION_TYPE":"U","NORAD_CAT_ID":57044,"ELEMENT_SET_NO":999,"REV_AT_EPOCH":15162,"BSTAR":0.00067677795,"MEAN_MOTION_DOT":0.00021782,"MEAN_MOTION_DDOT":0},{"OBJECT_NAME":"STARLINK-33656","OBJECT_ID":"2025-063AC","EPOCH":"2026-03-09T07:53:32.699616","MEAN_MOTION":15.30189501,"ECCENTRICITY":0.00014818,"INCLINATION":53.1601,"RA_OF_ASC_NODE":54.1769,"ARG_OF_PERICENTER":85.825,"MEAN_ANOMALY":274.292,"EPHEMERIS_TYPE":0,"CLASSIFICATION_TYPE":"U","NORAD_CAT_ID":63389,"ELEMENT_SET_NO":999,"REV_AT_EPOCH":5470,"BSTAR":0.00088451424,"MEAN_MOTION_DOT":0.00025921,"MEAN_MOTION_DDOT":0}]
